H1 CPF 01  gfz 2022 09 12 00  7551 terrasarx 
H2 0702601  6201 31698    2022 09 12 00 59 42 2022 09 17 00 00 42   120 1 1  0 0 0
H9
10 0 59834  20142.000000  0   -2542712.673  -1118780.795  -6310332.097
10 0 59834  20262.000000  0   -3368934.687  -1129020.180  -5908489.813
10 0 59834  20382.000000  0   -4136598.385  -1105726.774  -5403414.858
10 0 59834  20502.000000  0   -4831744.748  -1050432.944  -4803842.182
10 0 59834  20622.000000  0   -5441674.898   -965459.197  -4120169.234
10 0 59834  20742.000000  0   -5955189.762   -853852.942  -3364286.422
10 0 59834  20862.000000  0   -6362807.106   -719310.077  -2549378.220
10 0 59834  20982.000000  0   -6656948.986   -566080.908  -1689697.403
10 0 59834  21102.000000  0   -6832095.769   -398863.215   -800316.710
10 0 59834  21222.000000  0   -6884901.850   -222682.941    103140.170
10 0 59834  21342.000000  0   -6814266.061    -42766.269   1004779.628
10 0 59834  21462.000000  0   -6621359.556    135592.499   1888725.264
10 0 59834  21582.000000  0   -6309607.528    307164.606   2739406.877
10 0 59834  21702.000000  0   -5884624.944    466918.937   3541843.590
10 0 59834  21822.000000  0   -5354107.741    610148.961   4281914.432
10 0 59834  21942.000000  0   -4727683.766    732590.901   4946610.167
10 0 59834  22062.000000  0   -4016727.433    830530.433   5524261.794
10 0 59834  22182.000000  0   -3234144.100    900895.789   6004742.580
10 0 59834  22302.000000  0   -2394127.588    941334.682   6379641.725
10 0 59834  22422.000000  0   -1511896.039    950274.367   6642406.560
10 0 59834  22542.000000  0    -603411.190    926963.683   6788450.176
10 0 59834  22662.000000  0     314911.270    871495.648   6815225.378
10 0 59834  22782.000000  0    1226497.328    784810.703   6722265.901
10 0 59834  22902.000000  0    2114912.393    668681.018   6511194.123
10 0 59834  23022.000000  0    2964156.484    525675.545   6185694.986
10 0 59834  23142.000000  0    3758953.539    359106.316   5751456.510
10 0 59834  23262.000000  0    4485029.234    172956.821   5216075.748
10 0 59834  23382.000000  0    5129372.192    -28206.566   4588931.964
10 0 59834  23502.000000  0    5680474.654   -239338.478   3881028.110
10 0 59834  23622.000000  0    6128548.146   -455030.783   3104801.702
10 0 59834  23742.000000  0    6465708.463   -669639.464   2273906.741
10 0 59834  23862.000000  0    6686123.000   -877419.340   1402970.210
10 0 59834  23982.000000  0    6786118.623  -1072663.548    507330.524
10 0 59834  24102.000000  0    6764249.057  -1249843.692   -397239.781
10 0 59834  24222.000000  0    6621315.290  -1403747.657  -1294821.949
10 0 59834  24342.000000  0    6360340.300  -1529610.631  -2169639.553
10 0 59834  24462.000000  0    5986499.217  -1623236.574  -3006343.455
10 0 59834  24582.000000  0    5507007.171  -1681107.105  -3790285.320
10 0 59834  24702.000000  0    4930968.975  -1700474.770  -4507774.925
10 0 59834  24822.000000  0    4269195.121  -1679438.815  -5146316.679
10 0 59834  24942.000000  0    3533988.100  -1617002.917  -5694821.507
10 0 59834  25062.000000  0    2738904.712  -1513113.081  -6143789.737
10 0 59834  25182.000000  0    1898501.816  -1368674.747  -6485464.424
10 0 59834  25302.000000  0    1028068.356  -1185549.416  -6713955.189
10 0 59834  25422.000000  0     143348.913   -966532.188  -6825329.191
10 0 59834  25542.000000  0    -739736.340   -715309.550  -6817671.271
10 0 59834  25662.000000  0   -1605371.285   -436398.532  -6691113.276
10 0 59834  25782.000000  0   -2438121.125   -135067.193  -6447831.788
10 0 59834  25902.000000  0   -3223201.113    182761.588  -6092013.652
10 0 59834  26022.000000  0   -3946734.289    510622.133  -5629792.501
10 0 59834  26142.000000  0   -4595997.156    841632.437  -5069153.605
10 0 59834  26262.000000  0   -5159646.536   1168632.566  -4419807.844
10 0 59834  26382.000000  0   -5627926.090   1484334.723  -3693035.194
10 0 59834  26502.000000  0   -5992845.046   1781480.516  -2901497.212
10 0 59834  26622.000000  0   -6248326.247   2053001.493  -2059022.438
10 0 59834  26742.000000  0   -6390319.619   2292180.432  -1180367.315
10 0 59834  26862.000000  0   -6416877.385   2492809.266   -280955.761
10 0 59834  26982.000000  0   -6328187.609   2649338.712    623397.581
10 0 59834  27102.000000  0   -6126563.931   2757016.307   1516773.410
10 0 59834  27222.000000  0   -5816392.446   2812009.545   2383437.013
10 0 59834  27342.000000  0   -5404036.235   2811509.687   3208124.019
10 0 59834  27462.000000  0   -4897701.557   2753814.078   3976316.940
10 0 59834  27582.000000  0   -4307267.035   2638384.394   4674505.676
10 0 59834  27702.000000  0   -3644083.023   2465880.575   5290425.952
10 0 59834  27822.000000  0   -2920746.158   2238170.082   5813273.660
10 0 59834  27942.000000  0   -2150852.426   1958312.024   6233891.568
10 0 59834  28062.000000  0   -1348735.167   1630516.055   6544924.261
10 0 59834  28182.000000  0    -529194.041   1260077.649   6740939.571
10 0 59834  28302.000000  0     292778.360    853291.056   6818516.719
10 0 59834  28422.000000  0    1102269.958    417341.774   6776302.181
10 0 59834  28542.000000  0    1884718.426    -39819.886   6615031.621
10 0 59834  28662.000000  0    2626171.965   -509622.928   6337518.647
10 0 59834  28782.000000  0    3313538.445   -983035.571   5948609.811
10 0 59834  28902.000000  0    3934819.486  -1450737.488   5455105.356
10 0 59834  29022.000000  0    4479324.016  -1903302.936   4865645.660
10 0 59834  29142.000000  0    4937857.664  -2331390.171   4190566.168
10 0 59834  29262.000000  0    5302886.576  -2725934.588   3441721.526
10 0 59834  29382.000000  0    5568669.850  -3078341.153   2632278.361
10 0 59834  29502.000000  0    5731355.589  -3380670.790   1776482.112
10 0 59834  29622.000000  0    5789040.691  -3625817.546    889403.370
10 0 59834  29742.000000  0    5741791.504  -3807671.203    -13334.649
10 0 59834  29862.000000  0    5591624.757  -3921260.654   -915838.987
10 0 59834  29982.000000  0    5342448.667  -3962874.854  -1802236.667
10 0 59834  30102.000000  0    4999965.700  -3930156.972  -2656961.950
10 0 59834  30222.000000  0    4571540.229  -3822171.548  -3465035.389
10 0 59834  30342.000000  0    4066034.968  -3639442.092  -4212329.377
10 0 59834  30462.000000  0    3493620.670  -3383959.086  -4885814.085
10 0 59834  30582.000000  0    2865564.604  -3059158.043  -5473779.933
10 0 59834  30702.000000  0    2194003.520  -2669869.914  -5966031.955
10 0 59834  30822.000000  0    1491707.234  -2222246.514  -6354056.133
10 0 59834  30942.000000  0     771835.258  -1723660.066  -6631157.558
10 0 59834  31062.000000  0      47691.413  -1182578.906  -6792565.074
10 0 59834  31182.000000  0    -667517.916   -608424.064  -6835503.746
10 0 59834  31302.000000  0   -1360918.635    -11408.131  -6759236.756
10 0 59834  31422.000000  0   -2020195.546    597642.127  -6565076.248
10 0 59834  31542.000000  0   -2633805.916   1207476.940  -6256362.730
10 0 59834  31662.000000  0   -3191177.533   1806626.066  -5838414.023
10 0 59834  31782.000000  0   -3682890.068   2383609.998  -5318444.202
10 0 59834  31902.000000  0   -4100837.720   2927157.864  -4705451.048
10 0 59834  32022.000000  0   -4438368.345   3426427.286  -4010070.460
10 0 59834  32142.000000  0   -4690395.090   3871221.737  -3244401.548
10 0 59834  32262.000000  0   -4853480.057   4252201.840  -2421804.138
10 0 59834  32382.000000  0   -4925886.738   4561084.496  -1556669.483
10 0 59834  32502.000000  0   -4907599.884   4790825.910   -664169.254
10 0 59834  32622.000000  0   -4800311.163   4935783.308    240014.559
10 0 59834  32742.000000  0   -4607368.944   4991850.594   1139972.246
10 0 59834  32862.000000  0   -4333695.541   4956562.870   2019855.710
10 0 59834  32982.000000  0   -3985670.503   4829167.512   2864167.517
10 0 59834  33102.000000  0   -3570984.819   4610660.256   3658041.471
10 0 59834  33222.000000  0   -3098470.948   4303786.046   4387509.608
10 0 59834  33342.000000  0   -2577912.990   3913004.891   5039751.281
10 0 59834  33462.000000  0   -2019840.522   3444422.902   5603319.050
10 0 59834  33582.000000  0   -1435311.937   2905690.765   6068336.843
10 0 59834  33702.000000  0    -835692.171   2305872.434   6426667.688
10 0 59834  33822.000000  0    -232430.939   1655287.529   6672048.460
10 0 59834  33942.000000  0     363155.201    965331.308   6800194.105
10 0 59834  34062.000000  0     940094.917    248273.472   6808867.324
10 0 59834  34182.000000  0    1487962.974   -482959.151   6697915.017
10 0 59834  34302.000000  0    1997067.845  -1215015.031   6469271.726
10 0 59834  34422.000000  0    2458623.045  -1934360.854   6126928.192
10 0 59834  34542.000000  0    2864900.444  -2627531.815   5676867.194
10 0 59834  34662.000000  0    3209362.364  -3281385.094   5126964.292
10 0 59834  34782.000000  0    3486769.539  -3883351.982   4486856.062
10 0 59834  34902.000000  0    3693264.383  -4421684.105   3767776.561
10 0 59834  35022.000000  0    3826426.415  -4885688.800   2982362.637
10 0 59834  35142.000000  0    3885298.399  -5265947.694   2144432.131
10 0 59834  35262.000000  0    3870382.833  -5554513.464   1268737.905
10 0 59834  35382.000000  0    3783608.090  -5745079.195    370702.279
10 0 59834  35502.000000  0    3628265.360  -5833115.714   -533861.104
10 0 59834  35622.000000  0    3408918.509  -5815975.593  -1429034.796
10 0 59834  35742.000000  0    3131286.337  -5692957.432  -2299086.785
10 0 59834  35862.000000  0    2802103.695  -5465331.583  -3128753.692
10 0 59834  35982.000000  0    2428963.155  -5136325.637  -3903514.011
10 0 59834  36102.000000  0    2020141.625  -4711070.442  -4609843.363
10 0 59834  36222.000000  0    1584417.497  -4196509.642  -5235446.793
10 0 59834  36342.000000  0    1130884.120  -3601276.040  -5769465.493
10 0 59834  36462.000000  0     668762.026  -2935538.339  -6202655.667
10 0 59834  36582.000000  0     207213.646  -2210821.702  -6527537.470
99
